{"type":"FeatureCollection","features":[{"type":"Feature","geometry":{"type":"Point","coordinates":[-80.636177477398178,37.726970987981581]},"properties":{"Name":"Alderson Elementary School","Facility_Type":"School","County":"Greenbrier"}},{"type":"Feature","geometry":{"type":"Point","coordinates":[-80.301792219841374,37.793354303825048]},"properties":{"Name":"White Sulphur Springs Police Department","Facility_Type":"Police Department","County":"Greenbrier"}},{"type":"Feature","geometry":{"type":"Point","coordinates":[-80.765383053146891,37.968576367021868]},"properties":{"Name":"Rainelle Volunteer Fire Department","Facility_Type":"Fire Department","County":"Greenbrier"}},{"type":"Feature","geometry":{"type":"Point","coordinates":[-80.769600922781891,37.969058140373392]},"properties":{"Name":"Rainelle Police Department","Facility_Type":"Police Department","County":"Greenbrier"}}]}